{"type": "FeatureCollection", "features": [ {"type": "Feature", "properties": {"norad_id": 58662, "name": "TIANMU-1 21", "group": "weather", "lat": 82.39111233520065, "lon": 25.42888280481333, "alt_km": 467.29675484647305, "timestamp": "2025-12-15T22:44:28.564041+00:00", "meta": {"OBJECT_NAME": "TIANMU-1 21", "OBJECT_ID": "2023-208C", "EPOCH": "2025-12-15T08:14:40.151328", "MEAN_MOTION": 15.31611937, "ECCENTRICITY": 0.00059409, "INCLINATION": 97.4372, "RA_OF_ASC_NODE": 102.7455, "ARG_OF_PERICENTER": 249.1592, "MEAN_ANOMALY": 110.9014, "EPHEMERIS_TYPE": 0, "CLASSIFICATION_TYPE": "U", "NORAD_CAT_ID": 58662, "ELEMENT_SET_NO": 999, "REV_AT_EPOCH": 10939, "BSTAR": 0.00028049931, "MEAN_MOTION_DOT": 8.489e-05, "MEAN_MOTION_DDOT": 0}, "tle": {"line1": "1 58662U 23208C   25349.34352027  .00008489  00000+0  28050-3 0  9997", "line2": "2 58662  97.4372 102.7455 0005940 249.1592 110.9014 15.31611937109390"}}, "geometry": {"type": "Point", "coordinates": [25.42888280481333, 82.39111233520065]}}, {"type": "Feature", "properties": {"norad_id": 58663, "name": "TIANMU-1 22", "group": "weather", "lat": -34.645809520930115, "lon": 106.21517904890462, "alt_km": 488.04483132524456, "timestamp": "2025-12-15T22:44:28.564059+00:00", "meta": {"OBJECT_NAME": "TIANMU-1 22", "OBJECT_ID": "2023-208D", "EPOCH": "2025-12-15T07:10:25.075776", "MEAN_MOTION": 15.27652207, "ECCENTRICITY": 0.00026718, "INCLINATION": 97.4379, "RA_OF_ASC_NODE": 100.3886, "ARG_OF_PERICENTER": 273.5768, "MEAN_ANOMALY": 86.5166, "EPHEMERIS_TYPE": 0, "CLASSIFICATION_TYPE": "U", "NORAD_CAT_ID": 58663, "ELEMENT_SET_NO": 999, "REV_AT_EPOCH": 10922, "BSTAR": 0.00023156075, "MEAN_MOTION_DOT": 6.184e-05, "MEAN_MOTION_DDOT": 0}, "tle": {"line1": "1 58663U 23208D   25349.29890134  .00006184  00000+0  23156-3 0  9990", "line2": "2 58663  97.4379 100.3886 0002671 273.5768  86.5166 15.27652207109222"}}, "geometry": {"type": "Point", "coordinates": [106.21517904890462, -34.645809520930115]}}, {"type": "Feature", "properties": {"norad_id": 58700, "name": "TIANMU-1 15", "group": "weather", "lat": 57.20648553209331, "lon": 159.66644916909675, "alt_km": 489.7096136300843, "timestamp": "2025-12-15T22:44:28.564076+00:00", "meta": {"OBJECT_NAME": "TIANMU-1 15", "OBJECT_ID": "2024-004A", "EPOCH": "2025-12-15T11:27:39.170880", "MEAN_MOTION": 15.24523095, "ECCENTRICITY": 0.0005662, "INCLINATION": 97.4625, "RA_OF_ASC_NODE": 170.9368, "ARG_OF_PERICENTER": 280.1287, "MEAN_ANOMALY": 79.9311, "EPHEMERIS_TYPE": 0, "CLASSIFICATION_TYPE": "U", "NORAD_CAT_ID": 58700, "ELEMENT_SET_NO": 999, "REV_AT_EPOCH": 10776, "BSTAR": 0.0001928, "MEAN_MOTION_DOT": 4.672e-05, "MEAN_MOTION_DDOT": 0}, "tle": {"line1": "1 58700U 24004A   25349.47753670  .00004672  00000+0  19280-3 0  9993", "line2": "2 58700  97.4625 170.9368 0005662 280.1287  79.9311 15.24523095107763"}}, "geometry": {"type": "Point", "coordinates": [159.66644916909675, 57.20648553209331]}}, {"type": "Feature", "properties": {"norad_id": 58701, "name": "TIANMU-1 16", "group": "weather", "lat": 39.83951218351697, "lon": -2.935638281491593, "alt_km": 491.74131643542387, "timestamp": "2025-12-15T22:44:28.564092+00:00", "meta": {"OBJECT_NAME": "TIANMU-1 16", "OBJECT_ID": "2024-004B", "EPOCH": "2025-12-15T07:57:08.688384", "MEAN_MOTION": 15.24470877, "ECCENTRICITY": 0.00043633, "INCLINATION": 97.4566, "RA_OF_ASC_NODE": 170.1776, "ARG_OF_PERICENTER": 284.933, "MEAN_ANOMALY": 75.1424, "EPHEMERIS_TYPE": 0, "CLASSIFICATION_TYPE": "U", "NORAD_CAT_ID": 58701, "ELEMENT_SET_NO": 999, "REV_AT_EPOCH": 10774, "BSTAR": 0.00022389142, "MEAN_MOTION_DOT": 5.428e-05, "MEAN_MOTION_DDOT": 0}, "tle": {"line1": "1 58701U 24004B   25349.33135056  .00005428  00000+0  22389-3 0  9995", "line2": "2 58701  97.4566 170.1776 0004363 284.9330  75.1424 15.24470877107741"}}, "geometry": {"type": "Point", "coordinates": [-2.935638281491593, 39.83951218351697]}}, {"type": "Feature", "properties": {"norad_id": 58702, "name": "TIANMU-1 17", "group": "weather", "lat": -44.27624238432108, "lon": -16.137992363557046, "alt_km": 497.7868550608391, "timestamp": "2025-12-15T22:44:28.564112+00:00", "meta": {"OBJECT_NAME": "TIANMU-1 17", "OBJECT_ID": "2024-004C", "EPOCH": "2025-12-15T09:09:22.341312", "MEAN_MOTION": 15.24515738, "ECCENTRICITY": 0.00035746, "INCLINATION": 97.46, "RA_OF_ASC_NODE": 170.6389, "ARG_OF_PERICENTER": 287.5896, "MEAN_ANOMALY": 72.495, "EPHEMERIS_TYPE": 0, "CLASSIFICATION_TYPE": "U", "NORAD_CAT_ID": 58702, "ELEMENT_SET_NO": 999, "REV_AT_EPOCH": 10774, "BSTAR": 0.00022744483, "MEAN_MOTION_DOT": 5.522e-05, "MEAN_MOTION_DDOT": 0}, "tle": {"line1": "1 58702U 24004C   25349.38150858  .00005522  00000+0  22744-3 0  9998", "line2": "2 58702  97.4600 170.6389 0003574 287.5896  72.4950 15.24515738107745"}}, "geometry": {"type": "Point", "coordinates": [-16.137992363557046, -44.27624238432108]}}, {"type": "Feature", "properties": {"norad_id": 58703, "name": "TIANMU-1 18", "group": "weather", "lat": -43.548818681141924, "lon": 178.55540541647343, "alt_km": 497.2561907952031, "timestamp": "2025-12-15T22:44:28.564130+00:00", "meta": {"OBJECT_NAME": "TIANMU-1 18", "OBJECT_ID": "2024-004D", "EPOCH": "2025-12-15T08:45:22.735008", "MEAN_MOTION": 15.24501772, "ECCENTRICITY": 0.00029361, "INCLINATION": 97.4617, "RA_OF_ASC_NODE": 170.8182, "ARG_OF_PERICENTER": 287.684, "MEAN_ANOMALY": 72.4077, "EPHEMERIS_TYPE": 0, "CLASSIFICATION_TYPE": "U", "NORAD_CAT_ID": 58703, "ELEMENT_SET_NO": 999, "REV_AT_EPOCH": 10774, "BSTAR": 0.00020714292, "MEAN_MOTION_DOT": 5.02e-05, "MEAN_MOTION_DDOT": 0}, "tle": {"line1": "1 58703U 24004D   25349.36484647  .00005020  00000+0  20714-3 0  9991", "line2": "2 58703  97.4617 170.8182 0002936 287.6840  72.4077 15.24501772107741"}}, "geometry": {"type": "Point", "coordinates": [178.55540541647343, -43.548818681141924]}}, {"type": "Feature", "properties": {"norad_id": 58990, "name": "INSAT-3DS", "group": "weather", "lat": 0.02553097183265431, "lon": 148.03704807770433, "alt_km": 35788.27028788584, "timestamp": "2025-12-15T22:44:28.564152+00:00", "meta": {"OBJECT_NAME": "INSAT-3DS", "OBJECT_ID": "2024-033A", "EPOCH": "2025-12-15T03:30:20.003904", "MEAN_MOTION": 1.0027384, "ECCENTRICITY": 0.00012623, "INCLINATION": 0.0449, "RA_OF_ASC_NODE": 127.4134, "ARG_OF_PERICENTER": 141.4872, "MEAN_ANOMALY": 309.8287, "EPHEMERIS_TYPE": 0, "CLASSIFICATION_TYPE": "U", "NORAD_CAT_ID": 58990, "ELEMENT_SET_NO": 999, "REV_AT_EPOCH": 4522, "BSTAR": 0, "MEAN_MOTION_DOT": -1.36e-06, "MEAN_MOTION_DDOT": 0}, "tle": {"line1": "1 58990U 24033A   25349.14606486 -.00000136  00000+0  00000+0 0  9990", "line2": "2 58990   0.0449 127.4134 0001262 141.4872 309.8287  1.00273840 45225"}}, "geometry": {"type": "Point", "coordinates": [148.03704807770433, 0.02553097183265431]}}, {"type": "Feature", "properties": {"norad_id": 59051, "name": "METEOR-M2 4", "group": "weather", "lat": 33.393197532580196, "lon": -58.97141711053523, "alt_km": 811.5788521032491, "timestamp": "2025-12-15T22:44:28.564171+00:00", "meta": {"OBJECT_NAME": "METEOR-M2 4", "OBJECT_ID": "2024-039A", "EPOCH": "2025-12-15T09:04:37.202304", "MEAN_MOTION": 14.22401753, "ECCENTRICITY": 0.00068943, "INCLINATION": 98.6769, "RA_OF_ASC_NODE": 306.2457, "ARG_OF_PERICENTER": 351.0395, "MEAN_ANOMALY": 9.0659, "EPHEMERIS_TYPE": 0, "CLASSIFICATION_TYPE": "U", "NORAD_CAT_ID": 59051, "ELEMENT_SET_NO": 999, "REV_AT_EPOCH": 9313, "BSTAR": 3.4040038e-05, "MEAN_MOTION_DOT": 3.2e-07, "MEAN_MOTION_DDOT": 0}, "tle": {"line1": "1 59051U 24039A   25349.37820836  .00000032  00000+0  34040-4 0  9997", "line2": "2 59051  98.6769 306.2457 0006894 351.0395   9.0659 14.22401753 93131"}}, "geometry": {"type": "Point", "coordinates": [-58.97141711053523, 33.393197532580196]}}, {"type": "Feature", "properties": {"norad_id": 60133, "name": "GOES 19", "group": "weather", "lat": -0.0026348183530877254, "lon": -9.247850167741225, "alt_km": 35782.857262693164, "timestamp": "2025-12-15T22:44:28.564199+00:00", "meta": {"OBJECT_NAME": "GOES 19", "OBJECT_ID": "2024-119A", "EPOCH": "2025-12-15T06:10:57.118656", "MEAN_MOTION": 1.00270196, "ECCENTRICITY": 0.00010066, "INCLINATION": 0.0095, "RA_OF_ASC_NODE": 62.4117, "ARG_OF_PERICENTER": 260.5771, "MEAN_ANOMALY": 138.7124, "EPHEMERIS_TYPE": 0, "CLASSIFICATION_TYPE": "U", "NORAD_CAT_ID": 60133, "ELEMENT_SET_NO": 999, "REV_AT_EPOCH": 512, "BSTAR": 0, "MEAN_MOTION_DOT": 0, "MEAN_MOTION_DDOT": 0}, "tle": {"line1": "1 60133U 24119A   25349.25760554  .00000000  00000+0  00000+0 0  9995", "line2": "2 60133   0.0095  62.4117 0001006 260.5771 138.7124  1.00270196  5125"}}, "geometry": {"type": "Point", "coordinates": [-9.247850167741225, -0.0026348183530877254]}}, {"type": "Feature", "properties": {"norad_id": 65815, "name": "FENGYUN 3H", "group": "weather", "lat": -62.72673937059235, "lon": 92.27643933581507, "alt_km": 833.2248639358422, "timestamp": "2025-12-15T22:44:28.564217+00:00", "meta": {"OBJECT_NAME": "FENGYUN 3H", "OBJECT_ID": "2025-219A", "EPOCH": "2025-12-15T08:03:57.717216", "MEAN_MOTION": 14.19905521, "ECCENTRICITY": 6.501e-05, "INCLINATION": 98.6587, "RA_OF_ASC_NODE": 288.8701, "ARG_OF_PERICENTER": 98.0519, "MEAN_ANOMALY": 262.0731, "EPHEMERIS_TYPE": 0, "CLASSIFICATION_TYPE": "U", "NORAD_CAT_ID": 65815, "ELEMENT_SET_NO": 999, "REV_AT_EPOCH": 1129, "BSTAR": 6.5697303e-05, "MEAN_MOTION_DOT": 9.6e-07, "MEAN_MOTION_DDOT": 0}, "tle": {"line1": "1 65815U 25219A   25349.33608469  .00000096  00000+0  65697-4 0  9997", "line2": "2 65815  98.6587 288.8701 0000650  98.0519 262.0731 14.19905521 11298"}}, "geometry": {"type": "Point", "coordinates": [92.27643933581507, -62.72673937059235]}}]}